{
  "name": "SATGUS",
  "line1": "1 62713U 25009DJ  25261.19071548  .00004740  00000+0  42325-3 0  9999",
  "line2": "2 62713  97.7298 340.3032 0001511  16.9752 343.1520 14.96404328 36813",
  "fetched_at": "2025-09-19T00:17:47.655348+00:00"
}